start=new Date('2021-12-05T00:00:00.000Z').valueOf();
sats=[{"ARG_OF_PERICENTER":"272.1997","TLE_LINE1":"1 49136U 21082G   21338.91667824 -.00025905  00000-0 -21587-3 0  9995","MEAN_MOTION_DDOT":"0.0000000000000","ECCENTRICITY":"0.00036690","TLE_LINE2":"2 49136  69.9998 256.9868 0003669 272.1997 270.3512 15.69749660  3668","REV_AT_EPOCH":"366","CLASSIFICATION_TYPE":"U","CENTER_NAME":"EARTH","REF_FRAME":"TEME","INCLINATION":"69.9998","FILE":"3232651","MEAN_MOTION":"15.69749660","SEMIMAJOR_AXIS":"6737.750","GP_ID":"191104807","LAUNCH_DATE":"2021-09-14","SITE":"AFWTR","MEAN_MOTION_DOT":"-0.00025905","ELEMENT_SET_NO":"999","RA_OF_ASC_NODE":"256.9868","COUNTRY_CODE":"US","APOAPSIS":"362.087","OBJECT_TYPE":"PAYLOAD","PERIOD":"91.734","OBJECT_ID":"2021-082G","OBJECT_NAME":"STARLINK-3084","NORAD_CAT_ID":"49136","MEAN_ANOMALY":"270.3512","BSTAR":"-0.00021587000000","PERIAPSIS":"357.143","EPOCH":"2021-12-04T22:00:00.999936","EPHEMERIS_TYPE":"0","DECAY_DATE":null,"RCS_SIZE":"LARGE","TIME_SYSTEM":"UTC","MEAN_ELEMENT_THEORY":"SGP4"},{"CLASSIFICATION_TYPE":"U","REV_AT_EPOCH":"366","TLE_LINE2":"2 49137  69.9995 256.9767 0003468 272.3250 274.4815 15.69825357  3664","INCLINATION":"69.9995","REF_FRAME":"TEME","CENTER_NAME":"EARTH","MEAN_MOTION_DDOT":"0.0000000000000","TLE_LINE1":"1 49137U 21082H   21338.91667824 -.00121940  00000-0 -10313-2 0  9996","ARG_OF_PERICENTER":"272.3250","ECCENTRICITY":"0.00034680","APOAPSIS":"361.735","COUNTRY_CODE":"US","RA_OF_ASC_NODE":"256.9767","GP_ID":"191104651","LAUNCH_DATE":"2021-09-14","SITE":"AFWTR","FILE":"3232651","SEMIMAJOR_AXIS":"6737.534","MEAN_MOTION":"15.69825357","ELEMENT_SET_NO":"999","MEAN_MOTION_DOT":"-0.00121940","NORAD_CAT_ID":"49137","OBJECT_NAME":"STARLINK-3055","MEAN_ANOMALY":"274.4815","OBJECT_ID":"2021-082H","PERIOD":"91.730","OBJECT_TYPE":"PAYLOAD","DECAY_DATE":null,"EPHEMERIS_TYPE":"0","EPOCH":"2021-12-04T22:00:00.999936","MEAN_ELEMENT_THEORY":"SGP4","TIME_SYSTEM":"UTC","RCS_SIZE":"LARGE","BSTAR":"-0.00103130000000","PERIAPSIS":"357.062"},{"ARG_OF_PERICENTER":"268.1719","MEAN_MOTION_DDOT":"0.0000000000000","TLE_LINE1":"1 49138U 21082J   21338.91667824 -.00664189  00000-0 -21528-1 0  9993","ECCENTRICITY":"0.00034100","TLE_LINE2":"2 49138  70.0005 258.9002 0003410 268.1719 104.2672 15.34204858  3642","REV_AT_EPOCH":"364","CLASSIFICATION_TYPE":"U","REF_FRAME":"TEME","CENTER_NAME":"EARTH","INCLINATION":"70.0005","SEMIMAJOR_AXIS":"6841.420","FILE":"3232651","MEAN_MOTION":"15.34204858","SITE":"AFWTR","GP_ID":"191105119","LAUNCH_DATE":"2021-09-14","MEAN_MOTION_DOT":"-0.00664189","ELEMENT_SET_NO":"999","COUNTRY_CODE":"US","RA_OF_ASC_NODE":"258.9002","APOAPSIS":"465.618","OBJECT_ID":"2021-082J","PERIOD":"93.860","OBJECT_TYPE":"PAYLOAD","OBJECT_NAME":"STARLINK-3058","NORAD_CAT_ID":"49138","MEAN_ANOMALY":"104.2672","BSTAR":"-0.02152800000000","PERIAPSIS":"460.952","EPOCH":"2021-12-04T22:00:00.999936","DECAY_DATE":null,"EPHEMERIS_TYPE":"0","TIME_SYSTEM":"UTC","RCS_SIZE":"LARGE","MEAN_ELEMENT_THEORY":"SGP4"},{"BSTAR":"-0.00002558100000","PERIAPSIS":"357.255","EPHEMERIS_TYPE":"0","DECAY_DATE":null,"EPOCH":"2021-12-04T22:00:00.999936","MEAN_ELEMENT_THEORY":"SGP4","RCS_SIZE":"LARGE","TIME_SYSTEM":"UTC","OBJECT_TYPE":"PAYLOAD","PERIOD":"91.734","OBJECT_ID":"2021-082K","NORAD_CAT_ID":"49139","OBJECT_NAME":"STARLINK-3057","MEAN_ANOMALY":"272.1312","LAUNCH_DATE":"2021-09-14","GP_ID":"191105275","SITE":"AFWTR","FILE":"3232651","MEAN_MOTION":"15.69748842","SEMIMAJOR_AXIS":"6737.753","ELEMENT_SET_NO":"999","MEAN_MOTION_DOT":"-0.00003265","APOAPSIS":"361.980","COUNTRY_CODE":"US","RA_OF_ASC_NODE":"256.9749","TLE_LINE1":"1 49139U 21082K   21338.91667824 -.00003265  00000-0 -25581-4 0  9992","MEAN_MOTION_DDOT":"0.0000000000000","ARG_OF_PERICENTER":"278.7710","ECCENTRICITY":"0.00035060","CLASSIFICATION_TYPE":"U","TLE_LINE2":"2 49139  70.0003 256.9749 0003506 278.7710 272.1312 15.69748842  3663","REV_AT_EPOCH":"366","INCLINATION":"70.0003","CENTER_NAME":"EARTH","REF_FRAME":"TEME"},{"MEAN_ANOMALY":"276.6297","NORAD_CAT_ID":"49140","OBJECT_NAME":"STARLINK-3118","OBJECT_ID":"2021-082L","PERIOD":"91.756","OBJECT_TYPE":"PAYLOAD","MEAN_ELEMENT_THEORY":"SGP4","TIME_SYSTEM":"UTC","RCS_SIZE":"LARGE","DECAY_DATE":null,"EPHEMERIS_TYPE":"0","EPOCH":"2021-12-04T22:00:00.999936","PERIAPSIS":"358.328","BSTAR":"0.00407480000000","INCLINATION":"70.0002","REF_FRAME":"TEME","CENTER_NAME":"EARTH","CLASSIFICATION_TYPE":"U","REV_AT_EPOCH":"366","TLE_LINE2":"2 49140  70.0002 256.9665 0003501 280.9007 276.6297 15.69375085  3666","ECCENTRICITY":"0.00035010","MEAN_MOTION_DDOT":"0.0000000000000","TLE_LINE1":"1 49140U 21082L   21338.91667824  .00509082  00000-0  40748-2 0  9990","ARG_OF_PERICENTER":"280.9007","APOAPSIS":"363.047","COUNTRY_CODE":"US","RA_OF_ASC_NODE":"256.9665","ELEMENT_SET_NO":"999","MEAN_MOTION_DOT":"0.00509082","GP_ID":"191104496","SITE":"AFWTR","LAUNCH_DATE":"2021-09-14","FILE":"3232651","MEAN_MOTION":"15.69375085","SEMIMAJOR_AXIS":"6738.822"},{"OBJECT_TYPE":"PAYLOAD","PERIOD":"93.853","OBJECT_ID":"2021-082M","MEAN_ANOMALY":"107.5643","OBJECT_NAME":"STARLINK-3093","NORAD_CAT_ID":"49141","PERIAPSIS":"460.584","BSTAR":"-0.02145900000000","RCS_SIZE":"LARGE","TIME_SYSTEM":"UTC","MEAN_ELEMENT_THEORY":"SGP4","EPOCH":"2021-12-04T22:00:00.999936","EPHEMERIS_TYPE":"0","DECAY_DATE":null,"ECCENTRICITY":"0.00034660","ARG_OF_PERICENTER":"277.1054","TLE_LINE1":"1 49141U 21082M   21338.91667824 -.00664400  00000-0 -21459-1 0  9996","MEAN_MOTION_DDOT":"0.0000000000000","CENTER_NAME":"EARTH","REF_FRAME":"TEME","INCLINATION":"70.0004","REV_AT_EPOCH":"364","TLE_LINE2":"2 49141  70.0004 258.9006 0003466 277.1054 107.5643 15.34315965  3648","CLASSIFICATION_TYPE":"U","MEAN_MOTION_DOT":"-0.00664400","ELEMENT_SET_NO":"999","FILE":"3232651","MEAN_MOTION":"15.34315965","SEMIMAJOR_AXIS":"6841.090","LAUNCH_DATE":"2021-09-14","GP_ID":"191104964","SITE":"AFWTR","RA_OF_ASC_NODE":"258.9006","COUNTRY_CODE":"US","APOAPSIS":"465.326"},{"RA_OF_ASC_NODE":"256.9682","COUNTRY_CODE":"US","APOAPSIS":"361.790","MEAN_MOTION_DOT":"-0.00037857","ELEMENT_SET_NO":"999","SEMIMAJOR_AXIS":"6737.558","FILE":"3232651","MEAN_MOTION":"15.69816682","GP_ID":"191105431","SITE":"AFWTR","LAUNCH_DATE":"2021-09-14","REF_FRAME":"TEME","CENTER_NAME":"EARTH","INCLINATION":"69.9999","REV_AT_EPOCH":"366","TLE_LINE2":"2 49142  69.9999 256.9682 0003513 277.1690 282.2900 15.69816682  3665","CLASSIFICATION_TYPE":"U","ECCENTRICITY":"0.00035130","ARG_OF_PERICENTER":"277.1690","MEAN_MOTION_DDOT":"0.0000000000000","TLE_LINE1":"1 49142U 21082N   21338.91667824 -.00037857  00000-0 -31588-3 0  9993","RCS_SIZE":"LARGE","TIME_SYSTEM":"UTC","MEAN_ELEMENT_THEORY":"SGP4","EPOCH":"2021-12-04T22:00:00.999936","DECAY_DATE":null,"EPHEMERIS_TYPE":"0","PERIAPSIS":"357.057","BSTAR":"-0.00031588000000","MEAN_ANOMALY":"282.2900","OBJECT_NAME":"STARLINK-3042","NORAD_CAT_ID":"49142","OBJECT_ID":"2021-082N","PERIOD":"91.730","OBJECT_TYPE":"PAYLOAD"},{"OBJECT_TYPE":"PAYLOAD","OBJECT_ID":"2021-082P","PERIOD":"91.732","NORAD_CAT_ID":"49143","OBJECT_NAME":"STARLINK-3109","MEAN_ANOMALY":"176.9376","BSTAR":"0.00000992230000","PERIAPSIS":"357.071","EPHEMERIS_TYPE":"0","DECAY_DATE":null,"EPOCH":"2021-12-04T20:00:01.000224","MEAN_ELEMENT_THEORY":"SGP4","TIME_SYSTEM":"UTC","RCS_SIZE":"LARGE","TLE_LINE1":"1 49143U 21082P   21338.83334491  .00000974  00000-0  99223-5 0  9996","MEAN_MOTION_DDOT":"0.0000000000000","ARG_OF_PERICENTER":"273.8990","ECCENTRICITY":"0.00036370","CLASSIFICATION_TYPE":"U","TLE_LINE2":"2 49143  70.0001 257.2006 0003637 273.8990 176.9376 15.69782340  3737","REV_AT_EPOCH":"373","INCLINATION":"70.0001","CENTER_NAME":"EARTH","REF_FRAME":"TEME","SITE":"AFWTR","GP_ID":"191105587","LAUNCH_DATE":"2021-09-14","SEMIMAJOR_AXIS":"6737.657","FILE":"3232651","MEAN_MOTION":"15.69782340","ELEMENT_SET_NO":"999","MEAN_MOTION_DOT":"0.00000974","APOAPSIS":"361.972","COUNTRY_CODE":"US","RA_OF_ASC_NODE":"257.2006"},{"MEAN_ANOMALY":"25.2313","OBJECT_NAME":"STARLINK-3100","NORAD_CAT_ID":"49144","OBJECT_TYPE":"PAYLOAD","OBJECT_ID":"2021-082Q","PERIOD":"93.842","RCS_SIZE":"LARGE","TIME_SYSTEM":"UTC","MEAN_ELEMENT_THEORY":"SGP4","EPOCH":"2021-12-04T20:00:01.000224","EPHEMERIS_TYPE":"0","DECAY_DATE":null,"PERIAPSIS":"460.157","BSTAR":"-0.02122800000000","CENTER_NAME":"EARTH","REF_FRAME":"TEME","INCLINATION":"70.0003","REV_AT_EPOCH":"365","TLE_LINE2":"2 49144  70.0003 259.1179 0003321 275.4379  25.2313 15.34492916  3658","CLASSIFICATION_TYPE":"U","ECCENTRICITY":"0.00033210","ARG_OF_PERICENTER":"275.4379","TLE_LINE1":"1 49144U 21082Q   21338.83334491 -.00661177  00000-0 -21228-1 0  9993","MEAN_MOTION_DDOT":"0.0000000000000","COUNTRY_CODE":"US","RA_OF_ASC_NODE":"259.1179","APOAPSIS":"464.701","MEAN_MOTION_DOT":"-0.00661177","ELEMENT_SET_NO":"999","SEMIMAJOR_AXIS":"6840.564","FILE":"3232651","MEAN_MOTION":"15.34492916","GP_ID":"191104808","LAUNCH_DATE":"2021-09-14","SITE":"AFWTR"},{"FILE":"3232651","MEAN_MOTION":"15.69841447","SEMIMAJOR_AXIS":"6737.488","LAUNCH_DATE":"2021-09-14","GP_ID":"191104652","SITE":"AFWTR","MEAN_MOTION_DOT":"-0.00096358","ELEMENT_SET_NO":"999","RA_OF_ASC_NODE":"257.1786","COUNTRY_CODE":"US","APOAPSIS":"361.653","ARG_OF_PERICENTER":"273.7711","MEAN_MOTION_DDOT":"0.0000000000000","TLE_LINE1":"1 49145U 21082R   21338.83334491 -.00096358  00000-0 -81157-3 0  9996","ECCENTRICITY":"0.00034140","TLE_LINE2":"2 49145  69.9985 257.1786 0003414 273.7711 185.6765 15.69841447  3737","REV_AT_EPOCH":"373","CLASSIFICATION_TYPE":"U","REF_FRAME":"TEME","CENTER_NAME":"EARTH","INCLINATION":"69.9985","BSTAR":"-0.00081157000000","PERIAPSIS":"357.052","EPOCH":"2021-12-04T20:00:01.000224","DECAY_DATE":null,"EPHEMERIS_TYPE":"0","RCS_SIZE":"LARGE","TIME_SYSTEM":"UTC","MEAN_ELEMENT_THEORY":"SGP4","OBJECT_ID":"2021-082R","PERIOD":"91.729","OBJECT_TYPE":"PAYLOAD","OBJECT_NAME":"STARLINK-3119","NORAD_CAT_ID":"49145","MEAN_ANOMALY":"185.6765"}];
